IRIDIUM 135             
1 43070U 17083A   26165.50036078  .00000013  00000+0 -25721-5 0  9998
2 43070  86.3962 323.1389 0002176  91.3625 268.7821 14.34217668443761
IRIDIUM 138             
1 43071U 17083B   26165.66526728  .00000054  00000+0  12205-4 0  9998
2 43071  86.3975 322.7651 0002339  86.6816 273.4647 14.34218288443772
IRIDIUM 116             
1 43072U 17083C   26165.56378607  .00000045  00000+0  90511-5 0  9996
2 43072  86.3960 323.0983 0001931  97.4471 262.6944 14.34217916443792
IRIDIUM 130             
1 43073U 17083D   26165.53207300 -.00000009  00000+0 -10165-4 0  9993
2 43073  86.3967 323.3868 0001809  90.7997 269.3406 14.34217363443735
IRIDIUM 151             
1 43074U 17083E   26165.50670344  .00000019  00000+0 -34933-6 0  9994
2 43074  86.3963 323.1799 0002143  92.2565 267.8876 14.34217656443754
IRIDIUM 134             
1 43075U 17083F   26165.47498973  .00000047  00000+0  98421-5 0  9998
2 43075  86.3964 323.2012 0002089  90.4694 269.6741 14.34218041443713
IRIDIUM 137             
1 43076U 17083G   26165.48767534  .00000040  00000+0  71899-5 0  9995
2 43076  86.3966 323.2886 0002176 103.5957 256.5481 14.34217867443788
IRIDIUM 141             
1 43077U 17083H   26165.48133287  .00000020  00000+0 -30201-7 0  9991
2 43077  86.3957 323.1222 0002090  90.7330 269.4106 14.34217647443782
IRIDIUM 153             
1 43078U 17083J   26165.64281755  .00000026  00000+0  22627-5 0  9990
2 43078  86.3958 291.5347 0002282  90.0281 270.1176 14.34217729444914
IRIDIUM 131             
1 43079U 17083K   26165.46864683  .00000102  00000+0  29504-4 0  9993
2 43079  86.3967 323.3132 0002210  91.9646 268.1803 14.34218489443712
IRIDIUM 144             
1 43249U 18030A   26165.57939032  .00000061  00000+0  14563-4 0  9991
2 43249  86.3957 291.4905 0002087  96.2288 263.9146 14.34218131429761
IRIDIUM 149             
1 43250U 18030B   26165.58573407 -.00000004  00000+0 -83393-5 0  9991
2 43250  86.3953 291.4550 0002135  93.6990 266.4450 14.34217486429780
IRIDIUM 157             
1 43251U 18030C   26165.60476166  .00000025  00000+0  18058-5 0  9996
2 43251  86.3956 291.4999 0002201  93.5859 266.5588 14.34217780429766
IRIDIUM 140             
1 43252U 18030D   26165.62378952  .00000018  00000+0 -63947-6 0  9994
2 43252  86.3956 291.5045 0002139  92.9301 267.2140 14.34217623429820
IRIDIUM 145             
1 43253U 18030E   26165.40179814  .00000065  00000+0  16100-4 0  9995
2 43253  86.3955 291.5696 0001954 100.0094 260.1323 14.34217666429727
IRIDIUM 146             
1 43254U 18030F   26165.59207639  .00000025  00000+0  17174-5 0  9992
2 43254  86.3957 291.5024 0002097  96.3281 263.8154 14.34217727429763
IRIDIUM 148             
1 43255U 18030G   26165.42082681  .00000053  00000+0  11773-4 0  9992
2 43255  86.3957 291.6170 0002246  96.8519 263.2932 14.34217820429775
IRIDIUM 142             
1 43256U 18030H   26165.59841839  .00000161  00000+0  50300-4 0  9998
2 43256  86.3953 291.4318 0002068  97.7361 262.4070 14.34218067429768
IRIDIUM 150             
1 43257U 18030J   26165.63647471  .00000020  00000+0  21547-6 0  9997
2 43257  86.3955 291.5323 0002016  93.3145 266.8281 14.34217569429794
IRIDIUM 143             
1 43258U 18030K   26165.61744648  .00000189  00000+0  60372-4 0  9993
2 43258  86.3961 291.6326 0002062  95.6239 264.5192 14.34217521429723
IRIDIUM 161             
1 43478U 18047C   26165.32643156  .00000286  00000+0  79065-4 0  9992
2 43478  86.4483  89.6672 0002538  85.5993 274.5498 14.43281564424722
IRIDIUM 152             
1 43479U 18047D   26165.52039674  .00000060  00000+0  14338-4 0  9991
2 43479  86.3959  89.4472 0002337  83.8118 276.3344 14.34217911422108
IRIDIUM 147             
1 43480U 18047E   26165.52673936  .00000019  00000+0 -10562-6 0  9990
2 43480  86.3960  89.4497 0002146  85.5443 274.5998 14.34217537422106
IRIDIUM 110             
1 43481U 18047F   26165.32377703  .00000086  00000+0  23501-4 0  9990
2 43481  86.3962  89.6269 0002693  81.9507 278.1994 14.34215722422061
IRIDIUM 162             
1 43482U 18047G   26165.52813184  .00000280  00000+0  77382-4 0  9993
2 43482  86.4481  89.4740 0002291  82.7592 277.3869 14.43280281424749
IRIDIUM 160             
1 43569U 18061A   26165.40914937  .00000066  00000+0  16649-4 0  9991
2 43569  86.3964  57.9590 0002273  85.6230 274.5226 14.34217856412970
IRIDIUM 166             
1 43570U 18061B   26165.43451939  .00000059  00000+0  13891-4 0  9992
2 43570  86.3965  57.8990 0002116  86.1489 273.9949 14.34217853413001
IRIDIUM 158             
1 43571U 18061C   26165.40280671  .00000045  00000+0  91372-5 0  9999
2 43571  86.3963  57.9221 0002214  81.9521 278.1926 14.34217619412963
IRIDIUM 165             
1 43572U 18061D   26165.42817560  .00000112  00000+0  33077-4 0  9997
2 43572  86.3965  57.9579 0002067  86.2478 273.8954 14.34217325412997
IRIDIUM 155             
1 43573U 18061E   26165.45988981  .00000038  00000+0  66251-5 0  9995
2 43573  86.3960  57.8138 0002125  82.2233 277.9204 14.34217656412960
